{
  "type": "FeatureCollection",
  "features": [
    {
      "type": "Feature",
      "properties": {
        "norad_id": 32414,
        "name": "FENGYUN 1C DEB",
        "group": "fengyun-1c-debris",
        "lat": -23.574229003515985,
        "lon": -126.7581647516781,
        "alt_km": 865.6885318214872,
        "timestamp": "2025-12-12T11:38:31.698474+00:00",
        "meta_object_name": "FENGYUN 1C DEB",
        "meta_object_id": "1999-025DAA",
        "meta_epoch": "2025-12-08T10:10:57.710784",
        "meta_mean_motion": 14.18376108,
        "meta_eccentricity": 0.00450145,
        "meta_inclination": 98.8578,
        "meta_ra_of_asc_node": 53.0907,
        "meta_arg_of_pericenter": 11.0611,
        "meta_mean_anomaly": 349.1543,
        "meta_ephemeris_type": 0,
        "meta_classification_type": "U",
        "meta_norad_cat_id": 32414,
        "meta_element_set_no": 999,
        "meta_rev_at_epoch": 93671,
        "meta_bstar": 0.0020734301,
        "meta_mean_motion_dot": 4.277e-05,
        "meta_mean_motion_ddot": 0,
        "tle_line1": "1 32414U 99025DAA 25342.42427906  .00004277  00000+0  20734-2 0  9996",
        "tle_line2": "2 32414  98.8578  53.0907 0045014  11.0611 349.1543 14.18376108936713"
      },
      "geometry": {
        "type": "Point",
        "coordinates": [
          -126.7581647516781,
          -23.574229003515985
        ]
      }
    },
    {
      "type": "Feature",
      "properties": {
        "norad_id": 32419,
        "name": "FENGYUN 1C DEB",
        "group": "fengyun-1c-debris",
        "lat": 8.524615044722749,
        "lon": -79.41114938909806,
        "alt_km": 668.7679910152146,
        "timestamp": "2025-12-12T11:38:31.698484+00:00",
        "meta_object_name": "FENGYUN 1C DEB",
        "meta_object_id": "1999-025DAF",
        "meta_epoch": "2025-12-11T15:09:56.013984",
        "meta_mean_motion": 14.09908253,
        "meta_eccentricity": 0.02839501,
        "meta_inclination": 97.9459,
        "meta_ra_of_asc_node": 281.0334,
        "meta_arg_of_pericenter": 32.1797,
        "meta_mean_anomaly": 329.6358,
        "meta_ephemeris_type": 0,
        "meta_classification_type": "U",
        "meta_norad_cat_id": 32419,
        "meta_element_set_no": 999,
        "meta_rev_at_epoch": 63555,
        "meta_bstar": 0.0013854285,
        "meta_mean_motion_dot": 3.513e-05,
        "meta_mean_motion_ddot": 0,
        "tle_line1": "1 32419U 99025DAF 25345.63189831  .00003513  00000+0  13854-2 0  9996",
        "tle_line2": "2 32419  97.9459 281.0334 0283950  32.1797 329.6358 14.09908253635552"
      },
      "geometry": {
        "type": "Point",
        "coordinates": [
          -79.41114938909806,
          8.524615044722749
        ]
      }
    },
    {
      "type": "Feature",
      "properties": {
        "norad_id": 32422,
        "name": "FENGYUN 1C DEB",
        "group": "fengyun-1c-debris",
        "lat": 0.5327194038014093,
        "lon": -61.90207277654384,
        "alt_km": 986.8047603855457,
        "timestamp": "2025-12-12T11:38:31.698494+00:00",
        "meta_object_name": "FENGYUN 1C DEB",
        "meta_object_id": "1999-025DAJ",
        "meta_epoch": "2025-12-10T15:48:54.548352",
        "meta_mean_motion": 13.98002768,
        "meta_eccentricity": 0.0298224,
        "meta_inclination": 97.8401,
        "meta_ra_of_asc_node": 116.4609,
        "meta_arg_of_pericenter": 298.6669,
        "meta_mean_anomaly": 58.4812,
        "meta_ephemeris_type": 0,
        "meta_classification_type": "U",
        "meta_norad_cat_id": 32422,
        "meta_element_set_no": 999,
        "meta_rev_at_epoch": 63104,
        "meta_bstar": 0.00051946,
        "meta_mean_motion_dot": 1.039e-05,
        "meta_mean_motion_ddot": 0,
        "tle_line1": "1 32422U 99025DAJ 25344.65896468  .00001039  00000+0  51946-3 0  9998",
        "tle_line2": "2 32422  97.8401 116.4609 0298224 298.6669  58.4812 13.98002768631040"
      },
      "geometry": {
        "type": "Point",
        "coordinates": [
          -61.90207277654384,
          0.5327194038014093
        ]
      }
    },
    {
      "type": "Feature",
      "properties": {
        "norad_id": 32425,
        "name": "FENGYUN 1C DEB",
        "group": "fengyun-1c-debris",
        "lat": 72.44994024842184,
        "lon": -23.29181716017316,
        "alt_km": 991.774875017998,
        "timestamp": "2025-12-12T11:38:31.698504+00:00",
        "meta_object_name": "FENGYUN 1C DEB",
        "meta_object_id": "1999-025DAM",
        "meta_epoch": "2025-12-06T04:16:42.340512",
        "meta_mean_motion": 14.16717033,
        "meta_eccentricity": 0.02322591,
        "meta_inclination": 96.701,
        "meta_ra_of_asc_node": 130.1238,
        "meta_arg_of_pericenter": 319.3009,
        "meta_mean_anomaly": 39.1014,
        "meta_ephemeris_type": 0,
        "meta_classification_type": "U",
        "meta_norad_cat_id": 32425,
        "meta_element_set_no": 999,
        "meta_rev_at_epoch": 69442,
        "meta_bstar": 0.00073001869,
        "meta_mean_motion_dot": 1.869e-05,
        "meta_mean_motion_ddot": 0,
        "tle_line1": "1 32425U 99025DAM 25340.17826783  .00001869  00000+0  73002-3 0  9995",
        "tle_line2": "2 32425  96.7010 130.1238 0232259 319.3009  39.1014 14.16717033694423"
      },
      "geometry": {
        "type": "Point",
        "coordinates": [
          -23.29181716017316,
          72.44994024842184
        ]
      }
    },
    {
      "type": "Feature",
      "properties": {
        "norad_id": 32430,
        "name": "FENGYUN 1C DEB",
        "group": "fengyun-1c-debris",
        "lat": -80.85296849738845,
        "lon": 83.19812564980727,
        "alt_km": 732.4271068204907,
        "timestamp": "2025-12-12T11:38:31.698515+00:00",
        "meta_object_name": "FENGYUN 1C DEB",
        "meta_object_id": "1999-025DAS",
        "meta_epoch": "2025-12-10T07:28:04.587744",
        "meta_mean_motion": 13.70091314,
        "meta_eccentricity": 0.0371791,
        "meta_inclination": 98.6989,
        "meta_ra_of_asc_node": 9.2735,
        "meta_arg_of_pericenter": 276.3648,
        "meta_mean_anomaly": 79.5293,
        "meta_ephemeris_type": 0,
        "meta_classification_type": "U",
        "meta_norad_cat_id": 32430,
        "meta_element_set_no": 999,
        "meta_rev_at_epoch": 91170,
        "meta_bstar": 0.0016009,
        "meta_mean_motion_dot": 2.253e-05,
        "meta_mean_motion_ddot": 0,
        "tle_line1": "1 32430U 99025DAS 25344.31116421  .00002253  00000+0  16009-2 0  9993",
        "tle_line2": "2 32430  98.6989   9.2735 0371791 276.3648  79.5293 13.70091314911705"
      },
      "geometry": {
        "type": "Point",
        "coordinates": [
          83.19812564980727,
          -80.85296849738845
        ]
      }
    },
    {
      "type": "Feature",
      "properties": {
        "norad_id": 32432,
        "name": "FENGYUN 1C DEB",
        "group": "fengyun-1c-debris",
        "lat": 36.879806108914764,
        "lon": 16.485336700769363,
        "alt_km": 714.6972665629328,
        "timestamp": "2025-12-12T11:38:31.698525+00:00",
        "meta_object_name": "FENGYUN 1C DEB",
        "meta_object_id": "1999-025DAU",
        "meta_epoch": "2025-12-11T09:01:10.543008",
        "meta_mean_motion": 14.52447324,
        "meta_eccentricity": 0.01726948,
        "meta_inclination": 98.1718,
        "meta_ra_of_asc_node": 21.5937,
        "meta_arg_of_pericenter": 309.9521,
        "meta_mean_anomaly": 48.6612,
        "meta_ephemeris_type": 0,
        "meta_classification_type": "U",
        "meta_norad_cat_id": 32432,
        "meta_element_set_no": 999,
        "meta_rev_at_epoch": 70675,
        "meta_bstar": 0.0029978427,
        "meta_mean_motion_dot": 0.00014846,
        "meta_mean_motion_ddot": 0,
        "tle_line1": "1 32432U 99025DAU 25345.37581647  .00014846  00000+0  29978-2 0  9998",
        "tle_line2": "2 32432  98.1718  21.5937 0172694 309.9521  48.6612 14.52447324706753"
      },
      "geometry": {
        "type": "Point",
        "coordinates": [
          16.485336700769363,
          36.879806108914764
        ]
      }
    },
    {
      "type": "Feature",
      "properties": {
        "norad_id": 32440,
        "name": "FENGYUN 1C DEB",
        "group": "fengyun-1c-debris",
        "lat": 65.14920086719638,
        "lon": -178.63034485852586,
        "alt_km": 806.8683406630489,
        "timestamp": "2025-12-12T11:38:31.698535+00:00",
        "meta_object_name": "FENGYUN 1C DEB",
        "meta_object_id": "1999-025DBC",
        "meta_epoch": "2025-12-10T08:10:09.004800",
        "meta_mean_motion": 13.61236458,
        "meta_eccentricity": 0.03217312,
        "meta_inclination": 99.1535,
        "meta_ra_of_asc_node": 199.7288,
        "meta_arg_of_pericenter": 97.09,
        "meta_mean_anomaly": 266.6938,
        "meta_ephemeris_type": 0,
        "meta_classification_type": "U",
        "meta_norad_cat_id": 32440,
        "meta_element_set_no": 999,
        "meta_rev_at_epoch": 60253,
        "meta_bstar": 0.0037130678,
        "meta_mean_motion_dot": 3.952e-05,
        "meta_mean_motion_ddot": 0,
        "tle_line1": "1 32440U 99025DBC 25344.34038200  .00003952  00000+0  37131-2 0  9991",
        "tle_line2": "2 32440  99.1535 199.7288 0321731  97.0900 266.6938 13.61236458602538"
      },
      "geometry": {
        "type": "Point",
        "coordinates": [
          -178.63034485852586,
          65.14920086719638
        ]
      }
    }
  ]
}